NORAD_CAT_ID,OBJECT_NAME,OBJECT_TYPE,EPOCH,MEAN_MOTION,ECCENTRICITY,INCLINATION,RA_OF_ASC_NODE,ARG_OF_PERICENTER,MEAN_ANOMALY,BSTAR,MEAN_MOTION_DOT,MEAN_MOTION_DDOT,TLE_LINE0,TLE_LINE1,TLE_LINE2,SEMIMAJOR_AXIS,PERIOD,APOGEE,PERIGEE,DECAYED
54157.0,STARLINK-5290,PAYLOAD,2023-10-31 05:05:57,15.08845656,0.0001681,53.2164,277.0068,95.0842,265.0342,0.00041715,6.358e-05,0.0,0 STARLINK-5290,1 54157U 22141A   23304.21246731  .00006358  00000-0  41715-3 0  9993,2 54157  53.2164 277.0068 0001681  95.0842 265.0342 15.08845656 55818,6917.863,95.437,540.891,538.565,0.0
54157.0,STARLINK-5290,PAYLOAD,2023-10-31 22:35:11,15.08842019,0.0001393,53.2177,273.7362,93.5482,266.567,0.00026104,3.869e-05,0.0,0 STARLINK-5290,1 54157U 22141A   23304.94110909  .00003869  00000-0  26104-3 0  9999,2 54157  53.2177 273.7362 0001393  93.5482 266.5670 15.08842019 55927,6917.874,95.437,540.703,538.776,0.0
54157.0,STARLINK-5290,PAYLOAD,2023-11-01 04:56:44,15.08849006,0.00014,53.2183,272.5483,93.8161,266.2991,0.0003508,5.301e-05,0.0,0 STARLINK-5290,1 54157U 22141A   23305.20606691  .00005301  00000-0  35080-3 0  9993,2 54157  53.2183 272.5483 0001400  93.8161 266.2991 15.08849006 55961,6917.853,95.437,540.686,538.749,0.0
54157.0,STARLINK-5290,PAYLOAD,2023-11-01 08:07:30,15.08851322,0.0001352,53.218,271.9525,92.9852,267.1294,0.00048983,7.519e-05,0.0,0 STARLINK-5290,1 54157U 22141A   23305.33854620  .00007519  00000-0  48983-3 0  9993,2 54157  53.2180 271.9525 0001352  92.9852 267.1294 15.08851322 55983,6917.846,95.437,540.646,538.775,0.0
54157.0,STARLINK-5290,PAYLOAD,2023-11-01 22:25:58,15.08844545,0.000167,53.2184,269.2744,89.8934,270.2249,0.00017044,2.426e-05,0.0,0 STARLINK-5290,1 54157U 22141A   23305.93470929  .00002426  00000-0  17044-3 0  9991,2 54157  53.2184 269.2744 0001670  89.8934 270.2249 15.08844545 56074,6917.866,95.437,540.887,538.576,0.0
54157.0,STARLINK-5290,PAYLOAD,2023-11-02 04:47:31,15.08845941,0.0001426,53.2183,268.089,89.5794,270.5362,0.00022025,3.22e-05,0.0,0 STARLINK-5290,1 54157U 22141A   23306.19966790  .00003220  00000-0  22025-3 0  9994,2 54157  53.2183 268.0890 0001426  89.5794 270.5362 15.08845941 56117,6917.862,95.437,540.714,538.741,0.0
54157.0,STARLINK-5290,PAYLOAD,2023-11-02 14:19:50,15.08842453,0.0001425,53.2173,266.3051,91.8947,268.2208,0.00013084,1.795e-05,0.0,0 STARLINK-5290,1 54157U 22141A   23306.59710886  .00001795  00000-0  13084-3 0  9991,2 54157  53.2173 266.3051 0001425  91.8947 268.2208 15.08842453 56175,6917.873,95.437,540.724,538.752,0.0
54157.0,STARLINK-5290,PAYLOAD,2023-11-02 22:16:45,15.08842116,0.00015,53.2177,264.819,95.881,264.2353,0.0001172,1.578e-05,0.0,0 STARLINK-5290,1 54157U 22141A   23306.92830906  .00001578  00000-0  11720-3 0  9998,2 54157  53.2177 264.8190 0001500  95.8810 264.2353 15.08842116 56222,6917.874,95.437,540.777,538.701,0.0
54157.0,STARLINK-5290,PAYLOAD,2023-11-03 06:13:41,15.08856176,0.0001637,53.2187,263.3339,103.4231,256.6944,0.00042293,6.452e-05,0.0,0 STARLINK-5290,1 54157U 22141A   23307.25950443  .00006452  00000-0  42293-3 0  9999,2 54157  53.2187 263.3339 0001637 103.4231 256.6944 15.08856176 56273,6917.831,95.437,540.828,538.563,0.0
54157.0,STARLINK-5290,PAYLOAD,2023-11-03 14:10:37,15.08846641,0.0002079,53.2179,261.8427,81.7865,278.3363,0.000353,5.335e-05,0.0,0 STARLINK-5290,1 54157U 22141A   23307.59070837  .00005335  00000-0  35300-3 0  9996,2 54157  53.2179 261.8427 0002079  81.7865 278.3363 15.08846641 56325,6917.86,95.437,541.163,538.287,0.0
54157.0,STARLINK-5290,PAYLOAD,2023-11-03 20:32:09,15.08847442,0.0002199,53.2163,260.6555,83.4049,276.7193,0.0002463,3.635e-05,0.0,0 STARLINK-5290,1 54157U 22141A   23307.85566779  .00003635  00000-0  24630-3 0  9995,2 54157  53.2163 260.6555 0002199  83.4049 276.7193 15.08847442 56360,6917.858,95.437,541.244,538.201,0.0
54157.0,STARLINK-5290,PAYLOAD,2023-11-04 04:29:05,15.08837653,0.0001891,53.2189,259.1685,83.6078,276.5129,2.0011e-05,3e-07,0.0,0 STARLINK-5290,1 54157U 22141A   23308.18687247  .00000030  00000-0  20011-4 0  9992,2 54157  53.2189 259.1685 0001891  83.6078 276.5129 15.08837653 56413,6917.888,95.438,541.061,538.444,0.0
54157.0,STARLINK-5290,PAYLOAD,2023-11-04 06:04:28,15.08844397,0.0001643,53.2176,258.87,83.14,276.9779,9.6942e-05,1.255e-05,0.0,0 STARLINK-5290,1 54157U 22141A   23308.25310797  .00001255  00000-0  96942-4 0  9999,2 54157  53.2176 258.8700 0001643  83.1400 276.9779 15.08844397 56421,6917.867,95.437,540.869,538.595,0.0
54157.0,STARLINK-5290,PAYLOAD,2023-11-04 14:01:24,15.08838937,0.000159,53.2178,257.3826,80.0747,280.0425,7.7196e-07,-2.76e-06,0.0,0 STARLINK-5290,1 54157U 22141A   23308.58431157 -.00000276  00000-0  77196-6 0  9994,2 54157  53.2178 257.3826 0001590  80.0747 280.0425 15.08838937 56479,6917.884,95.438,540.849,538.649,0.0
54157.0,STARLINK-5290,PAYLOAD,2023-11-05 04:19:52,15.08856324,0.0001538,53.2161,254.7051,90.3606,269.7562,0.00056809,8.769e-05,0.0,0 STARLINK-5290,1 54157U 22141A   23309.18046759  .00008769  00000-0  56809-3 0  9990,2 54157  53.2161 254.7051 0001538  90.3606 269.7562 15.08856324 56568,6917.83,95.437,540.759,538.632,0.0
54157.0,STARLINK-5290,PAYLOAD,2023-11-05 13:52:11,15.0885559,0.0001573,53.2156,252.9238,83.6765,276.4407,0.00059934,9.267e-05,0.0,0 STARLINK-5290,1 54157U 22141A   23309.57790647  .00009267  00000-0  59934-3 0  9991,2 54157  53.2156 252.9238 0001573  83.6765 276.4407 15.08855590 56623,6917.833,95.437,540.786,538.61,0.0
54157.0,STARLINK-5290,PAYLOAD,2023-11-06 02:35:14,15.08897887,0.000123,53.2163,250.5428,103.5732,256.5397,0.0016996,0.00026908,0.0,0 STARLINK-5290,1 54157U 22141A   23310.10781045  .00026908  00000-0  16996-2 0  9995,2 54157  53.2163 250.5428 0001230 103.5732 256.5397 15.08897887 56703,6917.703,95.434,540.419,538.718,0.0
54157.0,STARLINK-5290,PAYLOAD,2023-11-06 05:46:00,15.08927418,0.0001819,53.2165,249.946,107.6413,252.4778,0.0026826,0.00042768,0.0,0 STARLINK-5290,1 54157U 22141A   23310.24028235  .00042768  00000-0  26826-2 0  9990,2 54157  53.2165 249.9460 0001819 107.6413 252.4778 15.08927418 56721,6917.613,95.432,540.737,538.22,0.0
54157.0,STARLINK-5290,PAYLOAD,2023-11-06 13:42:56,15.08874017,0.0002505,53.2169,248.461,83.1503,276.9774,0.00024698,3.648e-05,0.0,0 STARLINK-5290,1 54157U 22141A   23310.57148627  .00003648  00000-0  24698-3 0  9994,2 54157  53.2169 248.4610 0002505  83.1503 276.9774 15.08874017 56775,6917.776,95.435,541.374,537.909,0.0
54157.0,STARLINK-5290,PAYLOAD,2023-11-07 02:26:02,15.08776316,0.0001449,53.2164,246.0823,112.8906,247.2239,0.0023969,0.00037998,0.0,0 STARLINK-5290,1 54157U 22141A   23311.10141596  .00037998  00000-0  23969-2 0  9996,2 54157  53.2164 246.0823 0001449 112.8906 247.2239 15.08776316 56852,6918.075,95.442,540.942,538.938,0.0
54157.0,STARLINK-5290,PAYLOAD,2023-11-08 02:16:51,15.08844655,0.0001392,53.2168,241.6238,91.2333,268.8819,0.002376,0.00037734,0.0,0 STARLINK-5290,1 54157U 22141A   23312.09503789  .00037734  00000-0  23760-2 0  9998,2 54157  53.2168 241.6238 0001392  91.2333 268.8819 15.08844655 57001,6917.866,95.437,540.694,538.768,0.0
54157.0,STARLINK-5290,PAYLOAD,2023-11-09 02:07:38,15.08857209,0.000149,53.2176,237.1652,92.8295,267.2868,0.0010634,0.00016684,0.0,0 STARLINK-5290,1 54157U 22141A   23313.08863632  .00016684  00000-0  10634-2 0  9991,2 54157  53.2176 237.1652 0001490  92.8295 267.2868 15.08857209 57155,6917.828,95.436,540.724,538.662,0.0
54157.0,STARLINK-5290,PAYLOAD,2023-11-09 22:47:37,15.08882941,0.00012,53.2177,233.2992,104.1893,255.9233,0.0011506,0.00018093,0.0,0 STARLINK-5290,1 54157U 22141A   23313.94973524  .00018093  00000-0  11506-2 0  9993,2 54157  53.2177 233.2992 0001200 104.1893 255.9233 15.08882941 57285,6917.749,95.435,540.444,538.784,0.0
54157.0,STARLINK-5290,PAYLOAD,2023-11-10 01:58:23,15.08829784,0.0001371,53.2173,232.7011,90.544,269.571,-0.0010687,-0.00017251,0.0,0 STARLINK-5290,1 54157U 22141A   23314.08221457 -.00017251  00000-0 -10687-2 0  9996,2 54157  53.2173 232.7011 0001371  90.5440 269.5710 15.08829784 57302,6917.912,95.438,540.725,538.828,0.0
54157.0,STARLINK-5290,PAYLOAD,2023-11-10 11:30:42,15.08825796,0.0001342,53.2171,230.9167,80.6489,279.4654,-0.00062019,-0.00010141,0.0,0 STARLINK-5290,1 54157U 22141A   23314.47966267 -.00010141  00000-0 -62019-3 0  9992,2 54157  53.2171 230.9167 0001342  80.6489 279.4654 15.08825796 57365,6917.924,95.438,540.717,538.86,0.0
54157.0,STARLINK-5290,PAYLOAD,2023-11-11 03:24:33,15.08892519,0.0001677,53.2166,227.942,96.8223,263.296,0.0016692,0.00026416,0.0,0 STARLINK-5290,1 54157U 22141A   23315.14205557  .00026416  00000-0  16692-2 0  9990,2 54157  53.2166 227.9420 0001677  96.8223 263.2960 15.08892519 57462,6917.72,95.434,540.745,538.425,0.0
54157.0,STARLINK-5290,PAYLOAD,2023-11-11 04:59:56,15.0889532,0.0001856,53.2168,227.6449,97.2216,262.8987,0.0017462,0.00027655,0.0,0 STARLINK-5290,1 54157U 22141A   23315.20829450  .00027655  00000-0  17462-2 0  9993,2 54157  53.2168 227.6449 0001856  97.2216 262.8987 15.08895320 57476,6917.711,95.434,540.86,538.292,0.0
54157.0,STARLINK-5290,PAYLOAD,2023-11-12 01:39:59,15.08822909,0.0001556,53.2165,223.7805,82.5845,277.5324,-8.4494e-05,-1.632e-05,0.0,0 STARLINK-5290,1 54157U 22141A   23316.06943481 -.00001632  00000-0 -84494-4 0  9999,2 54157  53.2165 223.7805 0001556  82.5845 277.5324 15.08822909 57604,6917.933,95.439,540.874,538.721,0.0
54157.0,STARLINK-5290,PAYLOAD,2023-11-12 11:12:18,15.08826074,0.0001582,53.2162,221.9965,82.021,278.0962,-3.4205e-05,-8.32e-06,0.0,0 STARLINK-5290,1 54157U 22141A   23316.46687781 -.00000832  00000-0 -34205-4 0  9997,2 54157  53.2162 221.9965 0001582  82.0210 278.0962 15.08826074 57665,6917.923,95.438,540.882,538.694,0.0
54157.0,STARLINK-5290,PAYLOAD,2023-11-12 22:20:00,15.08840708,0.0001793,53.2162,219.918,74.8644,285.2547,0.00025373,3.752e-05,0.0,0 STARLINK-5290,1 54157U 22141A   23316.93055712  .00003752  00000-0  25373-3 0  9999,2 54157  53.2162 219.9180 0001793  74.8644 285.2547 15.08840708 57732,6917.878,95.438,540.984,538.503,0.0
